[{"OBJECT_NAME":"ONEWEB-0560","OBJECT_ID":"2023-004F","EPOCH":"2024-01-08T21:25:21.731232","MEAN_MOTION":13.18689644,"ECCENTRICITY":0.0002066,"INCLINATION":87.9233,"RA_OF_ASC_NODE":152.6254,"ARG_OF_PERICENTER":108.6949,"MEAN_ANOMALY":251.4408,"EPHEMERIS_TYPE":0,"CLASSIFICATION_TYPE":"U","NORAD_CAT_ID":55145,"ELEMENT_SET_NO":999,"REV_AT_EPOCH":5237,"BSTAR":6.5151e-5,"MEAN_MOTION_DOT":3.9e-7,"MEAN_MOTION_DDOT":0},{"OBJECT_NAME":"ONEWEB-0565","OBJECT_ID":"2023-004G","EPOCH":"2024-01-08T23:05:30.109056","MEAN_MOTION":13.18690513,"ECCENTRICITY":0.0002662,"INCLINATION":87.9187,"RA_OF_ASC_NODE":152.697,"ARG_OF_PERICENTER":67.9689,"MEAN_ANOMALY":292.1726,"EPHEMERIS_TYPE":0,"CLASSIFICATION_TYPE":"U","NORAD_CAT_ID":55146,"ELEMENT_SET_NO":999,"REV_AT_EPOCH":5237,"BSTAR":0.0022663,"MEAN_MOTION_DOT":9.07e-6,"MEAN_MOTION_DDOT":0},{"OBJECT_NAME":"ONEWEB-0567","OBJECT_ID":"2023-004H","EPOCH":"2024-01-08T22:56:23.903808","MEAN_MOTION":13.18719107,"ECCENTRICITY":0.0002279,"INCLINATION":87.9171,"RA_OF_ASC_NODE":152.6533,"ARG_OF_PERICENTER":92.5841,"MEAN_ANOMALY":267.5552,"EPHEMERIS_TYPE":0,"CLASSIFICATION_TYPE":"U","NORAD_CAT_ID":55147,"ELEMENT_SET_NO":999,"REV_AT_EPOCH":5237,"BSTAR":-0.01677,"MEAN_MOTION_DOT":-6.597e-5,"MEAN_MOTION_DDOT":0},{"OBJECT_NAME":"ONEWEB-0569","OBJECT_ID":"2023-004J","EPOCH":"2024-01-09T06:00:00.999648","MEAN_MOTION":13.60202569,"ECCENTRICITY":0.000414,"INCLINATION":87.7517,"RA_OF_ASC_NODE":137.4875,"ARG_OF_PERICENTER":83.3787,"MEAN_ANOMALY":157.2328,"EPHEMERIS_TYPE":0,"CLASSIFICATION_TYPE":"U","NORAD_CAT_ID":55148,"ELEMENT_SET_NO":999,"REV_AT_EPOCH":5329,"BSTAR":-0.76046,"MEAN_MOTION_DOT":-0.00542609,"MEAN_MOTION_DDOT":0},{"OBJECT_NAME":"ONEWEB-0570","OBJECT_ID":"2023-004K","EPOCH":"2024-01-08T22:38:10.870368","MEAN_MOTION":13.18689137,"ECCENTRICITY":0.0001547,"INCLINATION":87.9232,"RA_OF_ASC_NODE":152.6474,"ARG_OF_PERICENTER":68.395,"MEAN_ANOMALY":291.7346,"EPHEMERIS_TYPE":0,"CLASSIFICATION_TYPE":"U","NORAD_CAT_ID":55149,"ELEMENT_SET_NO":999,"REV_AT_EPOCH":5236,"BSTAR":-3.686e-5,"MEAN_MOTION_DOT":-2.0e-8,"MEAN_MOTION_DDOT":0},{"OBJECT_NAME":"ONEWEB-0571","OBJECT_ID":"2023-004L","EPOCH":"2024-01-08T22:29:03.541056","MEAN_MOTION":13.18682526,"ECCENTRICITY":0.0002515,"INCLINATION":87.9235,"RA_OF_ASC_NODE":152.6527,"ARG_OF_PERICENTER":82.8571,"MEAN_ANOMALY":277.2847,"EPHEMERIS_TYPE":0,"CLASSIFICATION_TYPE":"U","NORAD_CAT_ID":55150,"ELEMENT_SET_NO":999,"REV_AT_EPOCH":5237,"BSTAR":-0.00011364,"MEAN_MOTION_DOT":-3.2e-7,"MEAN_MOTION_DDOT":0},{"OBJECT_NAME":"ONEWEB-0572","OBJECT_ID":"2023-004M","EPOCH":"2024-01-08T22:34:24.770208","MEAN_MOTION":13.17650698,"ECCENTRICITY":0.0001573,"INCLINATION":87.9208,"RA_OF_ASC_NODE":182.8797,"ARG_OF_PERICENTER":82.4754,"MEAN_ANOMALY":277.6557,"EPHEMERIS_TYPE":0,"CLASSIFICATION_TYPE":"U","NORAD_CAT_ID":55151,"ELEMENT_SET_NO":999,"REV_AT_EPOCH":5024,"BSTAR":-2.7883e-5,"MEAN_MOTION_DOT":2.0e-8,"MEAN_MOTION_DDOT":0},{"OBJECT_NAME":"ONEWEB-0573","OBJECT_ID":"2023-004N","EPOCH":"2024-01-08T22:19:57.629568","MEAN_MOTION":13.18736111,"ECCENTRICITY":0.0002362,"INCLINATION":87.9186,"RA_OF_ASC_NODE":152.6835,"ARG_OF_PERICENTER":67.2676,"MEAN_ANOMALY":292.8706,"EPHEMERIS_TYPE":0,"CLASSIFICATION_TYPE":"U","NORAD_CAT_ID":55152,"ELEMENT_SET_NO":999,"REV_AT_EPOCH":5236,"BSTAR":-0.024704,"MEAN_MOTION_DOT":-9.723e-5,"MEAN_MOTION_DDOT":0},{"OBJECT_NAME":"ONEWEB-0588","OBJECT_ID":"2023-004P","EPOCH":"2024-01-08T22:10:53.967936","MEAN_MOTION":13.18686321,"ECCENTRICITY":0.0001461,"INCLINATION":87.9234,"RA_OF_ASC_NODE":152.6425,"ARG_OF_PERICENTER":72.3754,"MEAN_ANOMALY":287.7537,"EPHEMERIS_TYPE":0,"CLASSIFICATION_TYPE":"U","NORAD_CAT_ID":55153,"ELEMENT_SET_NO":999,"REV_AT_EPOCH":5236,"BSTAR":-0.00019846,"MEAN_MOTION_DOT":-6.5e-7,"MEAN_MOTION_DDOT":0},{"OBJECT_NAME":"ONEWEB-0598","OBJECT_ID":"2023-004Q","EPOCH":"2024-01-08T22:17:07.971072","MEAN_MOTION":13.11415166,"ECCENTRICITY":0.0002232,"INCLINATION":87.8958,"RA_OF_ASC_NODE":198.0279,"ARG_OF_PERICENTER":83.1747,"MEAN_ANOMALY":276.9635,"EPHEMERIS_TYPE":0,"CLASSIFICATION_TYPE":"U","NORAD_CAT_ID":55154,"ELEMENT_SET_NO":999,"REV_AT_EPOCH":4921,"BSTAR":-0.0013503,"MEAN_MOTION_DOT":-4.66e-6,"MEAN_MOTION_DDOT":0},{"OBJECT_NAME":"ONEWEB-0599","OBJECT_ID":"2023-004R","EPOCH":"2024-01-08T21:37:27.353856","MEAN_MOTION":13.17649004,"ECCENTRICITY":0.0001721,"INCLINATION":87.9211,"RA_OF_ASC_NODE":182.8624,"ARG_OF_PERICENTER":95.8074,"MEAN_ANOMALY":264.3254,"EPHEMERIS_TYPE":0,"CLASSIFICATION_TYPE":"U","NORAD_CAT_ID":55155,"ELEMENT_SET_NO":999,"REV_AT_EPOCH":5024,"BSTAR":-0.0011674,"MEAN_MOTION_DOT":-4.4e-6,"MEAN_MOTION_DDOT":0},{"OBJECT_NAME":"ONEWEB-0614","OBJECT_ID":"2023-004S","EPOCH":"2024-01-08T22:10:09.297408","MEAN_MOTION":13.11413965,"ECCENTRICITY":0.0001101,"INCLINATION":87.8959,"RA_OF_ASC_NODE":198.0305,"ARG_OF_PERICENTER":83.8056,"MEAN_ANOMALY":276.3197,"EPHEMERIS_TYPE":0,"CLASSIFICATION_TYPE":"U","NORAD_CAT_ID":55156,"ELEMENT_SET_NO":999,"REV_AT_EPOCH":4915,"BSTAR":-0.0010103,"MEAN_MOTION_DOT":-3.45e-6,"MEAN_MOTION_DDOT":0},{"OBJECT_NAME":"ONEWEB-0616","OBJECT_ID":"2023-004T","EPOCH":"2024-01-09T00:28:20.125632","MEAN_MOTION":13.17647165,"ECCENTRICITY":0.0002329,"INCLINATION":87.9209,"RA_OF_ASC_NODE":182.8542,"ARG_OF_PERICENTER":128.5999,"MEAN_ANOMALY":231.5341,"EPHEMERIS_TYPE":0,"CLASSIFICATION_TYPE":"U","NORAD_CAT_ID":55157,"ELEMENT_SET_NO":999,"REV_AT_EPOCH":5047,"BSTAR":0.000125,"MEAN_MOTION_DOT":6.1e-7,"MEAN_MOTION_DDOT":0},{"OBJECT_NAME":"ONEWEB-0617","OBJECT_ID":"2023-004U","EPOCH":"2024-01-08T21:53:46.079232","MEAN_MOTION":13.11413686,"ECCENTRICITY":0.000129,"INCLINATION":87.8956,"RA_OF_ASC_NODE":198.0346,"ARG_OF_PERICENTER":71.5185,"MEAN_ANOMALY":288.6084,"EPHEMERIS_TYPE":0,"CLASSIFICATION_TYPE":"U","NORAD_CAT_ID":55158,"ELEMENT_SET_NO":999,"REV_AT_EPOCH":4917,"BSTAR":0.00024548,"MEAN_MOTION_DOT":1.0e-6,"MEAN_MOTION_DDOT":0},{"OBJECT_NAME":"ONEWEB-0618","OBJECT_ID":"2023-004V","EPOCH":"2024-01-08T22:16:25.540032","MEAN_MOTION":14.2675704,"ECCENTRICITY":0.0015374,"INCLINATION":86.9117,"RA_OF_ASC_NODE":150.1379,"ARG_OF_PERICENTER":85.1149,"MEAN_ANOMALY":275.1798,"EPHEMERIS_TYPE":0,"CLASSIFICATION_TYPE":"U","NORAD_CAT_ID":55159,"ELEMENT_SET_NO":999,"REV_AT_EPOCH":5249,"BSTAR":0.00019626,"MEAN_MOTION_DOT":4.94e-6,"MEAN_MOTION_DDOT":0},{"OBJECT_NAME":"ONEWEB-0619","OBJECT_ID":"2023-004W","EPOCH":"2024-01-08T21:35:11.156352","MEAN_MOTION":13.17648351,"ECCENTRICITY":0.0001215,"INCLINATION":87.9204,"RA_OF_ASC_NODE":182.8538,"ARG_OF_PERICENTER":121.6516,"MEAN_ANOMALY":238.4734,"EPHEMERIS_TYPE":0,"CLASSIFICATION_TYPE":"U","NORAD_CAT_ID":55160,"ELEMENT_SET_NO":999,"REV_AT_EPOCH":5035,"BSTAR":-5.4487e-5,"MEAN_MOTION_DOT":-8.0e-8,"MEAN_MOTION_DDOT":0},{"OBJECT_NAME":"ONEWEB-0620","OBJECT_ID":"2023-004X","EPOCH":"2024-01-08T21:46:46.412832","MEAN_MOTION":13.11414376,"ECCENTRICITY":0.0001568,"INCLINATION":87.8958,"RA_OF_ASC_NODE":198.0415,"ARG_OF_PERICENTER":69.0283,"MEAN_ANOMALY":291.1013,"EPHEMERIS_TYPE":0,"CLASSIFICATION_TYPE":"U","NORAD_CAT_ID":55161,"ELEMENT_SET_NO":999,"REV_AT_EPOCH":4914,"BSTAR":0.00078609,"MEAN_MOTION_DOT":2.91e-6,"MEAN_MOTION_DDOT":0}]
