ONEWEB-0560             
1 55145U 23004F   24008.89261263  .00000039  00000+0  65151-4 0  9993
2 55145  87.9233 152.6254 0002066 108.6949 251.4408 13.18689644 52371
ONEWEB-0565             
1 55146U 23004G   24008.96215404  .00000907  00000+0  22663-2 0  9991
2 55146  87.9187 152.6970 0002662  67.9689 292.1726 13.18690513 52377
ONEWEB-0567             
1 55147U 23004H   24008.95583222 -.00006597  00000+0 -16770-1 0  9991
2 55147  87.9171 152.6533 0002279  92.5841 267.5552 13.18719107 52378
ONEWEB-0569             
1 55148U 23004J   24009.25001157 -.00542609  00000+0 -76046+0 0  9997
2 55148  87.7517 137.4875 0004140  83.3787 157.2328 13.60202569 53291
ONEWEB-0570             
1 55149U 23004K   24008.94318137 -.00000002  00000+0 -36860-4 0  9993
2 55149  87.9232 152.6474 0001547  68.3950 291.7346 13.18689137 52369
ONEWEB-0571             
1 55150U 23004L   24008.93684654 -.00000032  00000+0 -11364-3 0  9998
2 55150  87.9235 152.6527 0002515  82.8571 277.2847 13.18682526 52370
ONEWEB-0572             
1 55151U 23004M   24008.94056447  .00000002  00000+0 -27883-4 0  9993
2 55151  87.9208 182.8797 0001573  82.4754 277.6557 13.17650698 50247
ONEWEB-0573             
1 55152U 23004N   24008.93052812 -.00009723  00000+0 -24704-1 0  9991
2 55152  87.9186 152.6835 0002362  67.2676 292.8706 13.18736111 52368
ONEWEB-0588             
1 55153U 23004P   24008.92423574 -.00000065  00000+0 -19846-3 0  9991
2 55153  87.9234 152.6425 0001461  72.3754 287.7537 13.18686321 52363
ONEWEB-0598             
1 55154U 23004Q   24008.92856448 -.00000466  00000+0 -13503-2 0  9990
2 55154  87.8958 198.0279 0002232  83.1747 276.9635 13.11415166 49215
ONEWEB-0599             
1 55155U 23004R   24008.90101104 -.00000440  00000+0 -11674-2 0  9990
2 55155  87.9211 182.8624 0001721  95.8074 264.3254 13.17649004 50248
ONEWEB-0614             
1 55156U 23004S   24008.92371872 -.00000345  00000+0 -10103-2 0  9994
2 55156  87.8959 198.0305 0001101  83.8056 276.3197 13.11413965 49157
ONEWEB-0616             
1 55157U 23004T   24009.01967738  .00000061  00000+0  12500-3 0  9995
2 55157  87.9209 182.8542 0002329 128.5999 231.5341 13.17647165 50475
ONEWEB-0617             
1 55158U 23004U   24008.91233888  .00000100  00000+0  24548-3 0  9995
2 55158  87.8956 198.0346 0001290  71.5185 288.6084 13.11413686 49170
ONEWEB-0618             
1 55159U 23004V   24008.92807338  .00000494  00000+0  19626-3 0  9991
2 55159  86.9117 150.1379 0015374  85.1149 275.1798 14.26757040 52498
ONEWEB-0619             
1 55160U 23004W   24008.89943468 -.00000008  00000+0 -54487-4 0  9992
2 55160  87.9204 182.8538 0001215 121.6516 238.4734 13.17648351 50358
ONEWEB-0620             
1 55161U 23004X   24008.90748163  .00000291  00000+0  78609-3 0  9993
2 55161  87.8958 198.0415 0001568  69.0283 291.1013 13.11414376 49147
